[{"OBJECT_NAME":"STARLINK-5856","OBJECT_ID":"2023-037A","EPOCH":"2026-03-09T21:23:38.555808","MEAN_MOTION":14.98331752,"ECCENTRICITY":0.00025085,"INCLINATION":69.9994,"RA_OF_ASC_NODE":304.0996,"ARG_OF_PERICENTER":272.5008,"MEAN_ANOMALY":87.5864,"EPHEMERIS_TYPE":0,"CLASSIFICATION_TYPE":"U","NORAD_CAT_ID":55914,"ELEMENT_SET_NO":999,"REV_AT_EPOCH":16420,"BSTAR":-2.2290122e-5,"MEAN_MOTION_DOT":-3.59e-6,"MEAN_MOTION_DDOT":0},{"OBJECT_NAME":"SHIYAN-24C 01","OBJECT_ID":"2023-206A","EPOCH":"2026-03-09T21:26:37.340736","MEAN_MOTION":14.97903598,"ECCENTRICITY":0.0003675,"INCLINATION":97.3976,"RA_OF_ASC_NODE":41.7846,"ARG_OF_PERICENTER":132.3262,"MEAN_ANOMALY":227.8273,"EPHEMERIS_TYPE":0,"CLASSIFICATION_TYPE":"U","NORAD_CAT_ID":58650,"ELEMENT_SET_NO":999,"REV_AT_EPOCH":12044,"BSTAR":0.00018089,"MEAN_MOTION_DOT":2.076e-5,"MEAN_MOTION_DDOT":0}]
